{
  "type": "FeatureCollection",
  "features": [
    {
      "type": "Feature",
      "properties": {
        "norad_id": 39227,
        "name": "ARIRANG-5 (KOMPSAT-5)",
        "group": "resource",
        "lat": 44.97998576445088,
        "lon": 170.91029578774055,
        "alt_km": 546.7611768861261,
        "timestamp": "2025-12-20T09:36:01.288631+00:00",
        "meta_object_name": "ARIRANG-5 (KOMPSAT-5)",
        "meta_object_id": "2013-042A",
        "meta_epoch": "2025-12-20T04:36:37.618848",
        "meta_mean_motion": 15.04536886,
        "meta_eccentricity": 0.0003439,
        "meta_inclination": 97.6153,
        "meta_ra_of_asc_node": 178.3888,
        "meta_arg_of_pericenter": 37.2342,
        "meta_mean_anomaly": 322.9122,
        "meta_ephemeris_type": 0,
        "meta_classification_type": "U",
        "meta_norad_cat_id": 39227,
        "meta_element_set_no": 999,
        "meta_rev_at_epoch": 67694,
        "meta_bstar": 0.00012579,
        "meta_mean_motion_dot": 1.702e-05,
        "meta_mean_motion_ddot": 0,
        "tle_line1": "1 39227U 13042A   25354.19210207  .00001702  00000+0  12579-3 0  9990",
        "tle_line2": "2 39227  97.6153 178.3888 0003439  37.2342 322.9122 15.04536886676948"
      },
      "geometry": {
        "type": "Point",
        "coordinates": [
          170.91029578774055,
          44.97998576445088
        ]
      }
    },
    {
      "type": "Feature",
      "properties": {
        "norad_id": 39418,
        "name": "SKYSAT-A",
        "group": "resource",
        "lat": -72.83548053531948,
        "lon": -160.543492447172,
        "alt_km": 528.1805828588958,
        "timestamp": "2025-12-20T09:36:01.288642+00:00",
        "meta_object_name": "SKYSAT-A",
        "meta_object_id": "2013-066C",
        "meta_epoch": "2025-12-20T02:07:24.987360",
        "meta_mean_motion": 15.11653345,
        "meta_eccentricity": 0.0021262,
        "meta_inclination": 97.4098,
        "meta_ra_of_asc_node": 44.0738,
        "meta_arg_of_pericenter": 209.9149,
        "meta_mean_anomaly": 150.0868,
        "meta_ephemeris_type": 0,
        "meta_classification_type": "U",
        "meta_norad_cat_id": 39418,
        "meta_element_set_no": 999,
        "meta_rev_at_epoch": 66141,
        "meta_bstar": 0.00017333,
        "meta_mean_motion_dot": 2.899e-05,
        "meta_mean_motion_ddot": 0,
        "tle_line1": "1 39418U 13066C   25354.08848365  .00002899  00000+0  17333-3 0  9999",
        "tle_line2": "2 39418  97.4098  44.0738 0021262 209.9149 150.0868 15.11653345661417"
      },
      "geometry": {
        "type": "Point",
        "coordinates": [
          -160.543492447172,
          -72.83548053531948
        ]
      }
    },
    {
      "type": "Feature",
      "properties": {
        "norad_id": 39419,
        "name": "DUBAISAT-2",
        "group": "resource",
        "lat": -52.16480091544512,
        "lon": -5.736669148381441,
        "alt_km": 541.3625513317447,
        "timestamp": "2025-12-20T09:36:01.288652+00:00",
        "meta_object_name": "DUBAISAT-2",
        "meta_object_id": "2013-066D",
        "meta_epoch": "2025-12-20T03:27:55.444608",
        "meta_mean_motion": 15.08418813,
        "meta_eccentricity": 0.000999,
        "meta_inclination": 97.444,
        "meta_ra_of_asc_node": 344.3239,
        "meta_arg_of_pericenter": 292.8442,
        "meta_mean_anomaly": 67.1731,
        "meta_ephemeris_type": 0,
        "meta_classification_type": "U",
        "meta_norad_cat_id": 39419,
        "meta_element_set_no": 999,
        "meta_rev_at_epoch": 65938,
        "meta_bstar": 0.00010091,
        "meta_mean_motion_dot": 1.51e-05,
        "meta_mean_motion_ddot": 0,
        "tle_line1": "1 39419U 13066D   25354.14439172  .00001510  00000+0  10091-3 0  9992",
        "tle_line2": "2 39419  97.4440 344.3239 0009990 292.8442  67.1731 15.08418813659387"
      },
      "geometry": {
        "type": "Point",
        "coordinates": [
          -5.736669148381441,
          -52.16480091544512
        ]
      }
    },
    {
      "type": "Feature",
      "properties": {
        "norad_id": 39574,
        "name": "GPM-CORE",
        "group": "resource",
        "lat": 20.15100365887621,
        "lon": -163.09776521525936,
        "alt_km": 436.23012950030534,
        "timestamp": "2025-12-20T09:36:01.288662+00:00",
        "meta_object_name": "GPM-CORE",
        "meta_object_id": "2014-009C",
        "meta_epoch": "2025-12-20T03:17:17.009952",
        "meta_mean_motion": 15.44570936,
        "meta_eccentricity": 0.0009399,
        "meta_inclination": 64.9718,
        "meta_ra_of_asc_node": 187.9101,
        "meta_arg_of_pericenter": 248.018,
        "meta_mean_anomaly": 111.9962,
        "meta_ephemeris_type": 0,
        "meta_classification_type": "U",
        "meta_norad_cat_id": 39574,
        "meta_element_set_no": 999,
        "meta_rev_at_epoch": 67015,
        "meta_bstar": 0.00012335,
        "meta_mean_motion_dot": 5.517e-05,
        "meta_mean_motion_ddot": 0,
        "tle_line1": "1 39574U 14009C   25354.13700243  .00005517  00000+0  12335-3 0  9995",
        "tle_line2": "2 39574  64.9718 187.9101 0009399 248.0180 111.9962 15.44570936670157"
      },
      "geometry": {
        "type": "Point",
        "coordinates": [
          -163.09776521525936,
          20.15100365887621
        ]
      }
    },
    {
      "type": "Feature",
      "properties": {
        "norad_id": 39634,
        "name": "SENTINEL-1A",
        "group": "resource",
        "lat": 20.125237022470404,
        "lon": -3.4926093610197255,
        "alt_km": 695.4041634200221,
        "timestamp": "2025-12-20T09:36:01.288672+00:00",
        "meta_object_name": "SENTINEL-1A",
        "meta_object_id": "2014-016A",
        "meta_epoch": "2025-12-20T04:34:13.065600",
        "meta_mean_motion": 14.59202165,
        "meta_eccentricity": 0.0001277,
        "meta_inclination": 98.1795,
        "meta_ra_of_asc_node": 359.3222,
        "meta_arg_of_pericenter": 85.5643,
        "meta_mean_anomaly": 274.5702,
        "meta_ephemeris_type": 0,
        "meta_classification_type": "U",
        "meta_norad_cat_id": 39634,
        "meta_element_set_no": 999,
        "meta_rev_at_epoch": 62391,
        "meta_bstar": 3.7444e-05,
        "meta_mean_motion_dot": 1.31e-06,
        "meta_mean_motion_ddot": 0,
        "tle_line1": "1 39634U 14016A   25354.19042900  .00000131  00000+0  37444-4 0  9991",
        "tle_line2": "2 39634  98.1795 359.3222 0001277  85.5643 274.5702 14.59202165623913"
      },
      "geometry": {
        "type": "Point",
        "coordinates": [
          -3.4926093610197255,
          20.125237022470404
        ]
      }
    },
    {
      "type": "Feature",
      "properties": {
        "norad_id": 39731,
        "name": "KAZEOSAT 1",
        "group": "resource",
        "lat": -62.061870368819534,
        "lon": -129.92868580840877,
        "alt_km": 759.5258623389072,
        "timestamp": "2025-12-20T09:36:01.288682+00:00",
        "meta_object_name": "KAZEOSAT 1",
        "meta_object_id": "2014-024A",
        "meta_epoch": "2025-12-20T03:28:49.351296",
        "meta_mean_motion": 14.42066327,
        "meta_eccentricity": 0.0001169,
        "meta_inclination": 98.3433,
        "meta_ra_of_asc_node": 65.8866,
        "meta_arg_of_pericenter": 98.702,
        "meta_mean_anomaly": 261.4302,
        "meta_ephemeris_type": 0,
        "meta_classification_type": "U",
        "meta_norad_cat_id": 39731,
        "meta_element_set_no": 999,
        "meta_rev_at_epoch": 61275,
        "meta_bstar": 4.6486e-05,
        "meta_mean_motion_dot": 1.1e-06,
        "meta_mean_motion_ddot": 0,
        "tle_line1": "1 39731U 14024A   25354.14501564  .00000110  00000+0  46486-4 0  9992",
        "tle_line2": "2 39731  98.3433  65.8866 0001169  98.7020 261.4302 14.42066327612751"
      },
      "geometry": {
        "type": "Point",
        "coordinates": [
          -129.92868580840877,
          -62.061870368819534
        ]
      }
    },
    {
      "type": "Feature",
      "properties": {
        "norad_id": 39766,
        "name": "ALOS-2",
        "group": "resource",
        "lat": 74.83600393845497,
        "lon": 58.21612386506798,
        "alt_km": 622.9489500625323,
        "timestamp": "2025-12-20T09:36:01.288691+00:00",
        "meta_object_name": "ALOS-2",
        "meta_object_id": "2014-029A",
        "meta_epoch": "2025-12-20T04:23:02.210208",
        "meta_mean_motion": 14.7947109,
        "meta_eccentricity": 0.0001414,
        "meta_inclination": 97.9231,
        "meta_ra_of_asc_node": 88.9232,
        "meta_arg_of_pericenter": 99.7868,
        "meta_mean_anomaly": 260.3503,
        "meta_ephemeris_type": 0,
        "meta_classification_type": "U",
        "meta_norad_cat_id": 39766,
        "meta_element_set_no": 999,
        "meta_rev_at_epoch": 62511,
        "meta_bstar": 0.0002959,
        "meta_mean_motion_dot": 2.159e-05,
        "meta_mean_motion_ddot": 0,
        "tle_line1": "1 39766U 14029A   25354.18266447  .00002159  00000+0  29590-3 0  9998",
        "tle_line2": "2 39766  97.9231  88.9232 0001414  99.7868 260.3503 14.79471090625119"
      },
      "geometry": {
        "type": "Point",
        "coordinates": [
          58.21612386506798,
          74.83600393845497
        ]
      }
    }
  ]
}